{"type": "FeatureCollection", "features": [{"id": "0", "type": "Feature", "properties": {"location": "Mumbai, Maharashtra", "latitude": 19.076, "longitude": 72.8777, "risk_type": "flood", "risk_score": 0.84, "risk_level": "HIGH"}, "geometry": {"type": "Point", "coordinates": [72.8777, 19.076]}}, {"id": "1", "type": "Feature", "properties": {"location": "Chennai, Tamil Nadu", "latitude": 13.0827, "longitude": 80.2707, "risk_type": "flood", "risk_score": 0.63, "risk_level": "MEDIUM"}, "geometry": {"type": "Point", "coordinates": [80.2707, 13.0827]}}, {"id": "2", "type": "Feature", "properties": {"location": "Jaipur, Rajasthan", "latitude": 26.9124, "longitude": 75.7873, "risk_type": "drought", "risk_score": 0.76, "risk_level": "HIGH"}, "geometry": {"type": "Point", "coordinates": [75.7873, 26.9124]}}, {"id": "3", "type": "Feature", "properties": {"location": "Bengaluru, Karnataka", "latitude": 12.9716, "longitude": 77.5946, "risk_type": "heatwave", "risk_score": 0.48, "risk_level": "MEDIUM"}, "geometry": {"type": "Point", "coordinates": [77.5946, 12.9716]}}, {"id": "4", "type": "Feature", "properties": {"location": "Delhi, NCT of Delhi", "latitude": 28.6139, "longitude": 77.209, "risk_type": "air_quality", "risk_score": 0.91, "risk_level": "HIGH"}, "geometry": {"type": "Point", "coordinates": [77.209, 28.6139]}}, {"id": "5", "type": "Feature", "properties": {"location": "Ahmedabad, Gujarat", "latitude": 23.0225, "longitude": 72.5714, "risk_type": "heatwave", "risk_score": 0.72, "risk_level": "HIGH"}, "geometry": {"type": "Point", "coordinates": [72.5714, 23.0225]}}, {"id": "6", "type": "Feature", "properties": {"location": "Kolkata, West Bengal", "latitude": 22.5726, "longitude": 88.3639, "risk_type": "flood", "risk_score": 0.57, "risk_level": "MEDIUM"}, "geometry": {"type": "Point", "coordinates": [88.3639, 22.5726]}}, {"id": "7", "type": "Feature", "properties": {"location": "Hyderabad, Telangana", "latitude": 17.385, "longitude": 78.4867, "risk_type": "drought", "risk_score": 0.32, "risk_level": "LOW"}, "geometry": {"type": "Point", "coordinates": [78.4867, 17.385]}}, {"id": "8", "type": "Feature", "properties": {"location": "Guwahati, Assam", "latitude": 26.1445, "longitude": 91.7362, "risk_type": "flood", "risk_score": 0.68, "risk_level": "MEDIUM"}, "geometry": {"type": "Point", "coordinates": [91.7362, 26.1445]}}]}